"Orcus:90482 Orcus:2004 DW" "Sol"
{
	Class	"dwarfplanet"
	Texture	"icy.*"
	Color	[ 0.575 0.57 0.563 ]
	BlendTexture	true
	Radius	455
	Mass<kg>	5.45e20
	OrbitFrame
	{
		EquatorJ2000	{ Center "Sol/Orcus-Vanth" }
	}
	EllipticalOrbit
	{
		Epoch	2454000  # 2006 Sept 21 12:00
		Period	9.539154
		SemiMajorAxis	1241.4  # semi-major axis: 8999.8 km, mass ratio: 0.16 +/- 0.02
		Eccentricity	0.00091
		Inclination	105.03
		MeanLongitude	8.52
		AscendingNode	53.49
		LongOfPericenter	148
	}
	BodyFrame	{ EquatorJ2000 {} }
	UniformRotation  # to match mutual orbit
	{
		Epoch	2454000  # 2006 Sept 21 12:00
		Inclination	105.03
		AscendingNode	53.49
		MeridianAngle	135.03
	}
	LunarLambert	0.5
	GeomAlbedo	0.231
	InfoURL	"https://en.wikipedia.org/wiki/90482_Orcus"
}

# Orbit from Grundy et al. (2019), Icarus 334, 62-78
# "Mutual orbit orientations of transneptunian binaries"
# http://www2.lowell.edu/users/grundy/abstracts/2019.TNB_orbits.html
"Vanth:Orcus I:90482 Orcus I" "Sol/Orcus"
{
	Class	"moon"
	Mesh	"roughsphere.cms"
	Texture	"asteroid.*"
	Color	[ 0.487 0.469 0.455 ]
	BlendTexture	true
	Radius	221.25
	Mass<kg>	8.7e19
	OrbitFrame
	{
		EquatorJ2000	{ Center "Sol/Orcus-Vanth" }
	}
	EllipticalOrbit
	{
		Epoch	2454000  # 2006 Sept 21 12:00
		Period	9.539154
		SemiMajorAxis	7758.4  # semi-major axis: 8999.8 km, mass ratio: 0.16 +/- 0.02
		Eccentricity	0.00091
		Inclination	105.03
		MeanLongitude	188.52
		AscendingNode	53.49
		LongOfPericenter	328
	}
	BodyFrame	{ EquatorJ2000 {} }
	UniformRotation  # to match mutual orbit
	{
		Epoch	2454000  # 2006 Sept 21 12:00
		Inclination	105.03
		AscendingNode	53.49
		MeridianAngle	315.03
	}
	LunarLambert	0.5
	GeomAlbedo	0.08
	InfoURL	"https://en.wikipedia.org/wiki/Vanth_(moon)"
}

# Masses and moon orbits from Proudfoot et al. (2024), Planet. Sci. J. 5, 69
# "Beyond Point Masses. III. Detecting Haumea's Nonspherical Gravitational Field"
# https://ui.adsabs.harvard.edu/abs/2024PSJ.....5...69P/abstract
# Rotational parameters and rings from Ortiz et al. (2017), Nature 550 (7675), p. 219-223
# "The size, shape, density and ring of the dwarf planet Haumea from a stellar occultation"
# https://ui.adsabs.harvard.edu/abs/2017Natur.550..219O/abstract
"Haumea:136108 Haumea:2003 EL61" "Sol"
{
	Class	"dwarfplanet"
	Texture	"icy.*"
	Color	[ 0.635 0.635 0.636 ]
	BlendTexture	true
	SemiAxes	[ 1050 840 537 ]
	Mass<kg>	3952.44e18  # HST-only fit
	OrbitFrame
	{
		EclipticJ2000	{ Center "SSB" }
	}
	EllipticalOrbit  # primary body solution
	{
		Epoch	2451545.0  # 2000 Jan 01 12:00
		Period	282.8118121472361
		SemiMajorAxis	43.1042753471461
		Eccentricity	0.1949599020093612
		Inclination	28.20394234125633
		AscendingNode	121.9427805095287
		ArgOfPericenter	239.9675582432638
		MeanAnomaly	190.4008296173513
	}
	UniformRotation
	{
		Period	3.915341
		Inclination	258.0  # assume same as rings; ecliptic
		AscendingNode	15.2
		MeridianAngle	210  # absolute brightness (projected area) minimum during occultation on 2017 Jan 21 03:09 UT
	}
	LunarLambert	0.5
	# GeomAlbedo	0.66
	Reflectivity	0.29  # for phase integral = 0.44 ± 0.03
	Rings
	{
		Inner	2252
		Outer	2322
		Texture	"haumea-rings.*"
	}
	InfoURL	"https://en.wikipedia.org/wiki/Haumea"
}

# Size and albedo from Müller et al. (2019), Icarus 334, p. 39-51
# "Haumea's thermal emission revisited in the light of the occultation results"
# https://ui.adsabs.harvard.edu/abs/2019Icar..334...39M/abstract
"Namaka:Haumea II:136108 Haumea II:S 2005 (2003 EL61) 2" "Sol/Haumea"
{
	Class	"moon"
	Mesh	"asteroid.cms"
	Texture	"icymoon.*"
	Radius	75
	Mass<kg>	1.18e18  # HST-only fit
	# Density	650
	OrbitFrame	{ EclipticJ2000 {} }
	EllipticalOrbit  # HST-only fit
	{
		Epoch	2454615.0  # 2008 May 28 12:00 UT
		Period	18.24  # from SMA and masses
		SemiMajorAxis	25506
		Eccentricity	0.2179
		Inclination	69.005
		ArgOfPericenter	118.35
		AscendingNode	23.725
		MeanAnomaly	185.19
	}
	BodyFrame	{ EclipticJ2000 {} }
	UniformRotation  # assumed to match orbit plane
	{
		Period	144  # unknown, very likely asynchronous
		Inclination	69.005
		AscendingNode	23.725
	}
	LunarLambert	0.5
	# GeomAlbedo	0.7  # approximate for H = 5.1
	Reflectivity	0.31  # for phase integral = 0.44 ± 0.03
	InfoURL	"https://en.wikipedia.org/wiki/Namaka_(moon)"
}

# Dimensions, density, rotational parameters and albedo from Vara Lubiano (2023)
# "Propiedades físicas de objetos trans-neptunianos y centauros combinando
# técnicas fotométricas, astrométricas, radiométricas y de ocultación estelar"
# https://digibug.ugr.es/handle/10481/89038
"Hi'iaka:Haumea I:136108 Haumea I:S 2005 (2003 EL61) 1" "Sol/Haumea"
{
	Class	"moon"
	Mesh	"roughsphere.cms"
	Texture	"icymoon.*"
	SemiAxes	[ 238 185 143 ]
	Mass<kg>	12.13e18  # HST-only fit
	Density	685
	OrbitFrame	{ EclipticJ2000 {} }
	EllipticalOrbit  # HST-only fit
	{
		Epoch	2454615.0  # 2008 May 28 12:00 UT
		Period	49.04  # from SMA and masses
		SemiMajorAxis	49371
		Eccentricity	0.0542
		Inclination	77.394
		ArgOfPericenter	98.34
		AscendingNode	13.11
		MeanAnomaly	154.53
	}
	BodyFrame	{ EquatorJ2000 {} }
	UniformRotation  # average of two occultations
	{
		Period	9.68
		Inclination	112
		AscendingNode	54
	}
	LunarLambert	0.5
	# GeomAlbedo	0.68
	Reflectivity	0.30  # for phase integral = 0.44 ± 0.03
	InfoURL	"https://en.wikipedia.org/wiki/Hi'iaka_(moon)"
}

# Radius, shape and albedos from Kiss et al. (2024), A&A 684, A50
# "The visible and thermal light curve of the large Kuiper belt object (50000) Quaoar"
# https://ui.adsabs.harvard.edu/abs/2024A%26A...684A..50K/abstract
# Mass and Weywot orbit from Braga-Ribas et al. (2025), Phil. Trans. R. Soc. A. 383, 20240200
# "Investigating the formation of small Solar System objects using stellar
# occultations by satellites: present, future and its use to update satellite orbits"
# https://ui.adsabs.harvard.edu/abs/2025RSPTA.38340200B/abstract
# Photometric color calculated with spectral data from Marchi et al. (2003), A&A 408, L17-L19
# "Visible spectroscopy of the two largest known trans-Neptunian objects: Ixion and Quaoar"
# https://ui.adsabs.harvard.edu/abs/2003A%26A...408L..17M/abstract
"Quaoar:50000 Quaoar:2002 LM60" "Sol"
{
	Class	"dwarfplanet"
	Texture	"icy.*"
	Color	[ 0.324 0.288 0.251 ]
	BlendTexture	true
	Radius	545  # volume-equivalent
	SemiAxes	[ 1.18 0.992 0.855 ]  # a/b = 1.19, b/c = 1.16
	Mass<kg>	1.208e21
	OrbitFrame
	{
		EclipticJ2000	{ Center "SSB" }
	}
	EllipticalOrbit  # primary body solution
	{
		Epoch	2451545.0  # 2000 Jan 01 12:00
		Period	285.0867252438612
		SemiMajorAxis	43.33511791963463
		Eccentricity	0.03694047272837633
		Inclination	7.990872665933034
		AscendingNode	188.9141632759559
		ArgOfPericenter	157.5485109164584
		MeanAnomaly	265.1494956186123
	}

	# Ring pole from Proudfoot et al. (2025), Planet. Sci. J. 6, 146
	# "Constraints on Quaoar's Rings and Atmosphere from JWST/NIRCam
	# Observations of a Stellar Occultation"
	# https://ui.adsabs.harvard.edu/abs/2025PSJ.....6..146P/abstract
	BodyFrame	{ EquatorJ2000 {} }
	UniformRotation
	{
		Period	17.6788  # Morgado et al. (2023), 2023Natur.614..239M
		Inclination	35.0
		AscendingNode	349.5
	}

	# Radii and widths from Pereira et al. (2023), A&A 673, 14
	# "The two rings of (50000) Quaoar"
	# https://ui.adsabs.harvard.edu/abs/2023A%26A...673L...4P/abstract
	# https://ui.adsabs.harvard.edu/abs/2024A%26A...683C...4P/abstract
	Rings
	{
		Inner	2515
		Outer	4098
		Texture	"quaoar-rings.*"
	}
	LunarLambert	0.5
	# GeomAlbedo	0.11
	Reflectivity	0.057  # Bond albedo
	InfoURL	"https://en.wikipedia.org/wiki/Quaoar"
}

# Radius and geometric albedo from Fernandez-Valenzuela et al., 55th Annual DPS Meeting Joint with EPSC
# "Weywot: the darkest known satellite in the trans-Neptunian region"
# https://ui.adsabs.harvard.edu/abs/2023DPS....5520204F/abstract
